FLOCK 4G-6              
1 62660U 25009BD  26068.71061311  .00012261  00000+0  45910-3 0  9991
2 62660  97.3980 150.7943 0002380 348.2637  11.8546 15.27432125121307
STARLINK-34143          
1 63896U 25095G   26068.32864415  .00040432  00000+0  14703-2 0  9997
2 63896  42.9961 178.1631 0000330 216.7211 143.3618 15.27591094 47738
